[{"OBJECT_NAME":"APRIZESAT 2","OBJECT_ID":"2004-025A","EPOCH":"2026-04-25T18:02:49.656768","MEAN_MOTION":14.38017011,"ECCENTRICITY":0.0106545,"INCLINATION":98.0973,"RA_OF_ASC_NODE":284.7131,"ARG_OF_PERICENTER":48.8904,"MEAN_ANOMALY":312.1423,"EPHEMERIS_TYPE":0,"CLASSIFICATION_TYPE":"U","NORAD_CAT_ID":28366,"ELEMENT_SET_NO":999,"REV_AT_EPOCH":14410,"BSTAR":5.9502e-5,"MEAN_MOTION_DOT":1.5e-6,"MEAN_MOTION_DDOT":0},{"OBJECT_NAME":"SAUDICOMSAT 1","OBJECT_ID":"2004-025D","EPOCH":"2026-04-25T18:26:12.952608","MEAN_MOTION":14.5543168,"ECCENTRICITY":0.0032121,"INCLINATION":98.5794,"RA_OF_ASC_NODE":124.4832,"ARG_OF_PERICENTER":181.8996,"MEAN_ANOMALY":178.2083,"EPHEMERIS_TYPE":0,"CLASSIFICATION_TYPE":"U","NORAD_CAT_ID":28369,"ELEMENT_SET_NO":999,"REV_AT_EPOCH":15650,"BSTAR":7.5579e-5,"MEAN_MOTION_DOT":2.81e-6,"MEAN_MOTION_DDOT":0},{"OBJECT_NAME":"SAUDICOMSAT 2","OBJECT_ID":"2004-025E","EPOCH":"2026-04-25T17:58:18.264000","MEAN_MOTION":14.49945375,"ECCENTRICITY":0.005646,"INCLINATION":98.6665,"RA_OF_ASC_NODE":126.5088,"ARG_OF_PERICENTER":59.0412,"MEAN_ANOMALY":301.6313,"EPHEMERIS_TYPE":0,"CLASSIFICATION_TYPE":"U","NORAD_CAT_ID":28370,"ELEMENT_SET_NO":999,"REV_AT_EPOCH":15250,"BSTAR":8.6654e-5,"MEAN_MOTION_DOT":2.93e-6,"MEAN_MOTION_DDOT":0},{"OBJECT_NAME":"APRIZESAT 1","OBJECT_ID":"2004-025G","EPOCH":"2026-04-25T15:19:09.817248","MEAN_MOTION":14.51749256,"ECCENTRICITY":0.0043705,"INCLINATION":98.6326,"RA_OF_ASC_NODE":124.9286,"ARG_OF_PERICENTER":316.233,"MEAN_ANOMALY":43.5403,"EPHEMERIS_TYPE":0,"CLASSIFICATION_TYPE":"U","NORAD_CAT_ID":28372,"ELEMENT_SET_NO":999,"REV_AT_EPOCH":15428,"BSTAR":6.318e-5,"MEAN_MOTION_DOT":2.07e-6,"MEAN_MOTION_DDOT":0},{"OBJECT_NAME":"NANOSAT-1","OBJECT_ID":"2004-049B","EPOCH":"2026-04-25T20:15:14.302656","MEAN_MOTION":14.80050036,"ECCENTRICITY":0.0005311,"INCLINATION":98.2194,"RA_OF_ASC_NODE":251.2521,"ARG_OF_PERICENTER":99.9118,"MEAN_ANOMALY":260.2693,"EPHEMERIS_TYPE":0,"CLASSIFICATION_TYPE":"U","NORAD_CAT_ID":28493,"ELEMENT_SET_NO":999,"REV_AT_EPOCH":14770,"BSTAR":0.00016053,"MEAN_MOTION_DOT":1.161e-5,"MEAN_MOTION_DDOT":0},{"OBJECT_NAME":"SAUDICOMSAT 7","OBJECT_ID":"2007-012C","EPOCH":"2026-04-25T20:00:27.569088","MEAN_MOTION":14.6604823,"ECCENTRICITY":0.0055834,"INCLINATION":98.3745,"RA_OF_ASC_NODE":88.9065,"ARG_OF_PERICENTER":1.9572,"MEAN_ANOMALY":358.1839,"EPHEMERIS_TYPE":0,"CLASSIFICATION_TYPE":"U","NORAD_CAT_ID":31119,"ELEMENT_SET_NO":999,"REV_AT_EPOCH":1476,"BSTAR":0.00014848,"MEAN_MOTION_DOT":7.79e-6,"MEAN_MOTION_DDOT":0},{"OBJECT_NAME":"SAUDICOMSAT 6","OBJECT_ID":"2007-012E","EPOCH":"2026-04-25T19:42:19.666944","MEAN_MOTION":14.62490274,"ECCENTRICITY":0.0072803,"INCLINATION":98.406,"RA_OF_ASC_NODE":82.3806,"ARG_OF_PERICENTER":129.1855,"MEAN_ANOMALY":231.5843,"EPHEMERIS_TYPE":0,"CLASSIFICATION_TYPE":"U","NORAD_CAT_ID":31121,"ELEMENT_SET_NO":999,"REV_AT_EPOCH":1253,"BSTAR":0.00011284,"MEAN_MOTION_DOT":5.41e-6,"MEAN_MOTION_DDOT":0},{"OBJECT_NAME":"SAUDICOMSAT 5","OBJECT_ID":"2007-012H","EPOCH":"2026-04-25T21:06:44.587008","MEAN_MOTION":14.68093431,"ECCENTRICITY":0.0046173,"INCLINATION":98.3457,"RA_OF_ASC_NODE":89.7116,"ARG_OF_PERICENTER":290.8811,"MEAN_ANOMALY":68.7452,"EPHEMERIS_TYPE":0,"CLASSIFICATION_TYPE":"U","NORAD_CAT_ID":31124,"ELEMENT_SET_NO":999,"REV_AT_EPOCH":1592,"BSTAR":0.00012934,"MEAN_MOTION_DOT":7.0e-6,"MEAN_MOTION_DDOT":0},{"OBJECT_NAME":"SAUDICOMSAT 3","OBJECT_ID":"2007-012J","EPOCH":"2026-04-25T20:41:53.736864","MEAN_MOTION":14.70624884,"ECCENTRICITY":0.0038307,"INCLINATION":98.3111,"RA_OF_ASC_NODE":90.2491,"ARG_OF_PERICENTER":215.9243,"MEAN_ANOMALY":143.9387,"EPHEMERIS_TYPE":0,"CLASSIFICATION_TYPE":"U","NORAD_CAT_ID":31125,"ELEMENT_SET_NO":999,"REV_AT_EPOCH":1713,"BSTAR":0.00012806,"MEAN_MOTION_DOT":7.33e-6,"MEAN_MOTION_DDOT":0},{"OBJECT_NAME":"SAUDICOMSAT 4","OBJECT_ID":"2007-012L","EPOCH":"2026-04-25T19:38:49.917120","MEAN_MOTION":14.64443753,"ECCENTRICITY":0.0064679,"INCLINATION":98.3949,"RA_OF_ASC_NODE":87.3364,"ARG_OF_PERICENTER":62.553,"MEAN_ANOMALY":298.223,"EPHEMERIS_TYPE":0,"CLASSIFICATION_TYPE":"U","NORAD_CAT_ID":31127,"ELEMENT_SET_NO":999,"REV_AT_EPOCH":1362,"BSTAR":0.00014706,"MEAN_MOTION_DOT":7.49e-6,"MEAN_MOTION_DDOT":0},{"OBJECT_NAME":"APRIZESAT 4","OBJECT_ID":"2009-041D","EPOCH":"2026-04-25T17:25:56.345376","MEAN_MOTION":14.8379708,"ECCENTRICITY":0.0044421,"INCLINATION":98.1424,"RA_OF_ASC_NODE":190.0017,"ARG_OF_PERICENTER":130.7481,"MEAN_ANOMALY":229.7602,"EPHEMERIS_TYPE":0,"CLASSIFICATION_TYPE":"U","NORAD_CAT_ID":35684,"ELEMENT_SET_NO":999,"REV_AT_EPOCH":90358,"BSTAR":9.6939e-5,"MEAN_MOTION_DOT":7.58e-6,"MEAN_MOTION_DDOT":0},{"OBJECT_NAME":"APRIZESAT 3","OBJECT_ID":"2009-041F","EPOCH":"2026-04-25T09:32:57.973344","MEAN_MOTION":14.96056044,"ECCENTRICITY":0.0060838,"INCLINATION":98.1994,"RA_OF_ASC_NODE":266.1202,"ARG_OF_PERICENTER":240.9247,"MEAN_ANOMALY":118.5872,"EPHEMERIS_TYPE":0,"CLASSIFICATION_TYPE":"U","NORAD_CAT_ID":35686,"ELEMENT_SET_NO":999,"REV_AT_EPOCH":90848,"BSTAR":9.732e-5,"MEAN_MOTION_DOT":1.064e-5,"MEAN_MOTION_DDOT":0},{"OBJECT_NAME":"S-NET D","OBJECT_ID":"2018-014G","EPOCH":"2026-04-25T17:43:12.257184","MEAN_MOTION":15.16166418,"ECCENTRICITY":0.0007843,"INCLINATION":97.5397,"RA_OF_ASC_NODE":20.8664,"ARG_OF_PERICENTER":187.9824,"MEAN_ANOMALY":172.1285,"EPHEMERIS_TYPE":0,"CLASSIFICATION_TYPE":"U","NORAD_CAT_ID":43186,"ELEMENT_SET_NO":999,"REV_AT_EPOCH":45081,"BSTAR":0.00027447,"MEAN_MOTION_DOT":5.233e-5,"MEAN_MOTION_DDOT":0},{"OBJECT_NAME":"S-NET B","OBJECT_ID":"2018-014H","EPOCH":"2026-04-25T16:23:11.213088","MEAN_MOTION":15.16135857,"ECCENTRICITY":0.000859,"INCLINATION":97.5403,"RA_OF_ASC_NODE":20.796,"ARG_OF_PERICENTER":184.5415,"MEAN_ANOMALY":175.5741,"EPHEMERIS_TYPE":0,"CLASSIFICATION_TYPE":"U","NORAD_CAT_ID":43187,"ELEMENT_SET_NO":999,"REV_AT_EPOCH":45080,"BSTAR":0.00027729,"MEAN_MOTION_DOT":5.283e-5,"MEAN_MOTION_DDOT":0},{"OBJECT_NAME":"S-NET A","OBJECT_ID":"2018-014J","EPOCH":"2026-04-25T17:41:57.109056","MEAN_MOTION":15.16173315,"ECCENTRICITY":0.000848,"INCLINATION":97.5415,"RA_OF_ASC_NODE":21.0494,"ARG_OF_PERICENTER":184.7608,"MEAN_ANOMALY":175.3545,"EPHEMERIS_TYPE":0,"CLASSIFICATION_TYPE":"U","NORAD_CAT_ID":43188,"ELEMENT_SET_NO":999,"REV_AT_EPOCH":45081,"BSTAR":0.0002751,"MEAN_MOTION_DOT":5.247e-5,"MEAN_MOTION_DDOT":0},{"OBJECT_NAME":"S-NET C","OBJECT_ID":"2018-014K","EPOCH":"2026-04-25T18:03:23.306976","MEAN_MOTION":15.16128162,"ECCENTRICITY":0.001007,"INCLINATION":97.543,"RA_OF_ASC_NODE":21.1309,"ARG_OF_PERICENTER":178.9352,"MEAN_ANOMALY":181.1904,"EPHEMERIS_TYPE":0,"CLASSIFICATION_TYPE":"U","NORAD_CAT_ID":43189,"ELEMENT_SET_NO":999,"REV_AT_EPOCH":44936,"BSTAR":0.00028099,"MEAN_MOTION_DOT":5.355e-5,"MEAN_MOTION_DDOT":0},{"OBJECT_NAME":"SALSAT","OBJECT_ID":"2020-068K","EPOCH":"2026-04-25T17:43:34.869792","MEAN_MOTION":15.29000493,"ECCENTRICITY":0.001152,"INCLINATION":97.8866,"RA_OF_ASC_NODE":115.6436,"ARG_OF_PERICENTER":121.8273,"MEAN_ANOMALY":238.4089,"EPHEMERIS_TYPE":0,"CLASSIFICATION_TYPE":"U","NORAD_CAT_ID":46495,"ELEMENT_SET_NO":999,"REV_AT_EPOCH":30734,"BSTAR":0.00030336,"MEAN_MOTION_DOT":8.478e-5,"MEAN_MOTION_DDOT":0}]
